CAS-2T & KS-1Q          
1 41847U 16066G   20199.89128512  .00000051  00000-0  17319-4 0  9991
2 41847  98.6517 250.7117 0366526 138.1163 224.8693 14.38078047193791
NAYIF-1 (EO-88)         
1 42017U 17008BX  20199.89879683  .00001034  00000-0  42281-4 0  9998
2 42017  97.3584 267.0158 0005475 198.9728 161.1308 15.26566329190191
MAX VALIER SAT          
1 42778U 17036P   20199.90088840  .00000599  00000-0  28642-4 0  9992
2 42778  97.3028 252.6919 0010369 275.8958  84.1097 15.22663749170367
RADFXSAT (FOX-1B)       
1 43017U 17073E   20199.69914658  .00000321  00000-0  30945-4 0  9993
2 43017  97.7214 110.7678 0255797 312.0828  45.8878 14.78971716143634
FOX-1D (AO-92)          
1 43137U 18004AC  20199.88120302  .00000656  00000-0  29877-4 0  9990
2 43137  97.4445 270.8351 0007849 316.7165  43.3454 15.24170080139684
DIWATA-2B               
1 43678U 18084H   20199.92938561 -.00000207  00000-0 -14895-4 0  9995
2 43678  97.8878 318.3365 0011420  77.3174 282.9301 14.91637529 93568
ES'HAIL 2               
1 43700U 18090A   20199.85274051  .00000152  00000-0  00000-0 0  9993
2 43700   0.0245  52.7400 0001170  97.6206 118.5487  1.00268476  6019
FOX-1CLIFF (AO-95)      
1 43770U 18099N   20199.89537193  .00000229  00000-0  26132-4 0  9995
2 43770  97.7047 270.7438 0016224  95.2914 265.0158 14.95008049 88466
ITASAT 1                
1 43786U 18099AE  20199.75159479  .00000557  00000-0  55570-4 0  9996
2 43786  97.7064 271.0438 0016880  90.1766 270.1389 14.95343751 88468
JY1SAT (JO-97)          
1 43803U 18099AX  20199.69560713  .00000264  00000-0  28917-4 0  9996
2 43803  97.7024 270.8004 0016840  90.4126 269.9024 14.95525136 88459
PSAT2 (NO-104)          
1 44354U 19036R   20199.32408582  .00007275  00000-0  10312-3 0  9993
2 44354  28.5311 184.3836 0362675 270.1036  85.8006 15.03841407 58310
BRICSAT2 (NO-103)       
1 44355U 19036S   20199.61974742  .00014249  00000-0  19637-3 0  9990
2 44355  28.5308 172.1327 0340110 290.0212  66.4073 15.09542273 58475
JAISAT-1                
1 44419U 19038F   20199.84945105  .00000645  00000-0  40302-4 0  9998
2 44419  97.5404 161.0924 0022503  29.9367 330.3145 15.12820129 57196
DUCHIFAT-3              
1 44854U 19089C   20199.60114514  .00000166  00000-0  19859-4 0  9994
2 44854  36.9689 280.1862 0009745 307.4914  52.4973 14.99084367 32824
RS-44 & BREEZE-KM R/B   
1 44909U 19096E   20199.85004433  .00000008  00000-0 -17334-4 0  9990
2 44909  82.5231 335.1131 0217968 155.1972 205.9799 12.79708228 26071
ORBITAL FACTORY 2 (OF-2)
1 45113U 19071C   20199.33299715  .00001063  00000-0  43913-4 0  9996
2 45113  51.6429 219.1992 0013059 163.2318 196.9098 15.33435687 25710
HUSKYSAT-1              
1 45119U 19071J   20199.37240247  .00000661  00000-0  31519-4 0  9994
2 45119  51.6424 218.7131 0012385 159.8879 200.2593 15.33645745 25712
